EPOCH,MEAN_MOTION,ECCENTRICITY,INCLINATION,RA_OF_ASC_NODE,ARG_OF_PERICENTER,MEAN_ANOMALY,NORAD_CAT_ID,SEMIMAJOR_AXIS,PERIOD,APOAPSIS,PERIAPSIS,OBJECT_TYPE,RCS_SIZE,COUNTRY_CODE,LAUNCH_DATE
1635741196.0,15.21375392,0.0008302,97.4281,22.2391,224.3198,220.099,44703,6879.828,94.651,507.405,495.981,PAYLOAD,LARGE,PRC,2019.0
1635740693.0,15.25888602,0.0013659,97.4354,26.0739,233.6747,211.0485,44704,6866.255,94.371,497.499,478.742,PAYLOAD,MEDIUM,SDN,2019.0
1635742900.0,15.26097577,0.0013289,97.4231,25.0856,234.9023,190.5057,44705,6865.629,94.358,496.617,478.37,PAYLOAD,MEDIUM,PRC,2019.0
1635741282.0,15.2729797,0.001291,97.4361,26.4445,229.7895,215.1664,44706,6862.031,94.284,492.755,475.037,PAYLOAD,MEDIUM,PRC,2019.0
1635702954.0,15.06405556,0.0002023,53.0528,124.0013,83.3096,276.8123,44713,6925.332,95.592,548.598,545.796,PAYLOAD,LARGE,US,2019.0
1635712590.0,15.06403165,0.0001645,53.0544,123.4641,90.2099,269.9078,44714,6925.339,95.592,548.343,546.065,PAYLOAD,LARGE,US,2019.0
1635717368.0,15.06394796,0.0002153,53.0528,123.2133,85.847,274.2765,44715,6925.365,95.592,548.721,545.738,PAYLOAD,LARGE,US,2019.0
1635701763.0,15.06397144,0.0001951,53.0555,124.0174,79.2688,280.852,44716,6925.357,95.592,548.573,545.871,PAYLOAD,LARGE,US,2019.0
1635707335.0,15.06403752,0.000177,53.0524,143.7298,79.3519,280.7669,44717,6925.337,95.592,548.428,545.976,PAYLOAD,LARGE,US,2019.0
1635653356.0,15.06392574,0.0002002,53.0541,126.5393,81.206,278.9155,44718,6925.371,95.593,548.623,545.85,PAYLOAD,LARGE,US,2019.0
1635688387.0,15.06400075,0.0001932,53.0546,124.7068,86.8147,273.3063,44719,6925.348,95.592,548.551,545.875,PAYLOAD,LARGE,US,2019.0
1635707176.0,15.0639665,0.0002098,53.053,123.746,83.4826,276.6402,44720,6925.359,95.592,548.677,545.771,PAYLOAD,LARGE,US,2019.0
1635706221.0,15.0640688,0.0001953,53.0521,123.7827,80.2445,279.8764,44721,6925.327,95.592,548.545,545.84,PAYLOAD,LARGE,US,2019.0
1635700807.0,15.06393639,0.0001778,53.0538,124.0715,82.442,277.677,44722,6925.368,95.593,548.464,546.002,PAYLOAD,LARGE,US,2019.0
1635702080.0,15.06404834,0.0001913,53.0554,124.0093,80.9648,279.1557,44723,6925.334,95.592,548.524,545.874,PAYLOAD,LARGE,US,2019.0
1635710361.0,15.06395124,0.0001674,53.054,123.5782,87.1101,273.008,44724,6925.364,95.592,548.388,546.069,PAYLOAD,LARGE,US,2019.0
1635722303.0,15.06395543,0.0001617,53.0533,142.9524,87.9795,272.1379,44725,6925.362,95.592,548.347,546.107,PAYLOAD,LARGE,US,2019.0
1635710042.0,15.06404361,0.0001614,53.0541,123.6026,89.6894,270.428,44726,6925.335,95.592,548.318,546.082,PAYLOAD,LARGE,US,2019.0
1635713227.0,15.0639507,0.0001759,53.0548,163.3625,78.0487,282.0699,44727,6925.364,95.592,548.447,546.01,PAYLOAD,LARGE,US,2019.0
1635730653.0,15.75492535,6.99e-05,53.0537,88.2708,315.3173,44.7789,44728,6721.367,91.4,343.702,342.762,PAYLOAD,LARGE,US,2019.0
1635707246.0,15.08004288,0.0001752,52.9998,140.6584,67.2575,292.8599,44729,6920.436,95.49,543.513,541.089,PAYLOAD,LARGE,US,2019.0
1635722463.0,15.06399349,0.0001733,53.0527,122.9523,81.9983,278.1202,44731,6925.351,95.592,548.416,546.015,PAYLOAD,LARGE,US,2019.0
1635692688.0,15.06392074,0.0001866,53.0528,144.5018,84.864,275.2562,44732,6925.373,95.593,548.53,545.946,PAYLOAD,LARGE,US,2019.0
