GAOFEN 7                
1 44703U 19072A   21305.23143826  .00001708  00000-0  79244-4 0  9993
2 44703  97.4281  22.2391 0008302 224.3198 220.0990 15.21375392110857
SRSS-1                  
1 44704U 19072B   21305.22561846  .00003374  00000-0  13423-3 0  9996
2 44704  97.4354  26.0739 0013659 233.6747 211.0485 15.25888602111072
HUANGPU-1               
1 44705U 19072C   21305.25115980  .00005190  00000-0  20367-3 0  9997
2 44705  97.4231  25.0856 0013289 234.9023 190.5057 15.26097577111087
XIAOXIANG 1-08          
1 44706U 19072D   21305.23243424  .00008054  00000-0  30326-3 0  9999
2 44706  97.4361  26.4445 0012910 229.7895 215.1664 15.27297970111101
STARLINK-1007           
1 44713U 19074A   21304.78883037  .00001281  00000-0  10486-3 0  9998
2 44713  53.0528 124.0013 0002023  83.3096 276.8123 15.06405556109119
STARLINK-1008           
1 44714U 19074B   21304.90035106  .00001290  00000-0  10546-3 0  9996
2 44714  53.0544 123.4641 0001645  90.2099 269.9078 15.06403165109304
STARLINK-1009           
1 44715U 19074C   21304.95565302  .00000932  00000-0  81487-4 0  9993
2 44715  53.0528 123.2133 0002153  85.8470 274.2765 15.06394796109300
STARLINK-1010           
1 44716U 19074D   21304.77503499 -.00000064  00000-0  14627-4 0  9992
2 44716  53.0555 124.0174 0001951  79.2688 280.8520 15.06397144109096
STARLINK-1011           
1 44717U 19074E   21304.83953380  .00003654  00000-0  26402-3 0  9998
2 44717  53.0524 143.7298 0001770  79.3519 280.7669 15.06403752108849
STARLINK-1012           
1 44718U 19074F   21304.21477417 -.00000524  00000-0 -16300-4 0  9995
2 44718  53.0541 126.5393 0002002  81.2060 278.9155 15.06392574109025
STARLINK-1013           
1 44719U 19074G   21304.62022701  .00000007  00000-0  19366-4 0  9992
2 44719  53.0546 124.7068 0001932  86.8147 273.3063 15.06400075110214
STARLINK-1014           
1 44720U 19074H   21304.83769574 -.00000534  00000-0 -16938-4 0  9992
2 44720  53.0530 123.7460 0002098  83.4826 276.6402 15.06396650109129
STARLINK-1015           
1 44721U 19074J   21304.82663689  .00001104  00000-0  92979-4 0  9993
2 44721  53.0521 123.7827 0001953  80.2445 279.8764 15.06406880109110
STARLINK-1016           
1 44722U 19074K   21304.76398017  .00000332  00000-0  41171-4 0  9997
2 44722  53.0538 124.0715 0001778  82.4420 277.6770 15.06393639109111
STARLINK-1017           
1 44723U 19074L   21304.77871217  .00001480  00000-0  11823-3 0  9992
2 44723  53.0554 124.0093 0001913  80.9648 279.1557 15.06404834109115
STARLINK-1019           
1 44724U 19074M   21304.87455773  .00001486  00000-0  11865-3 0  9991
2 44724  53.0540 123.5782 0001674  87.1101 273.0080 15.06395124109123
STARLINK-1020           
1 44725U 19074N   21305.01277504  .00001910  00000-0  14709-3 0  9995
2 44725  53.0533 142.9524 0001617  87.9795 272.1379 15.06395543109035
STARLINK-1021           
1 44726U 19074P   21304.87086542  .00000331  00000-0  41084-4 0  9992
2 44726  53.0541 123.6026 0001614  89.6894 270.4280 15.06404361109125
STARLINK-1022           
1 44727U 19074Q   21304.90773013  .00000523  00000-0  54020-4 0  9990
2 44727  53.0548 163.3625 0001759  78.0487 282.0699 15.06395070108587
STARLINK-1023           
1 44728U 19074R   21305.10941165  .00374576  00000-0  23150-2 0  9999
2 44728  53.0537  88.2708 0000699 315.3173  44.7789 15.75492535109814
STARLINK-1024           
1 44729U 19074S   21304.83849644  .00005208  00000-0  35285-3 0  9994
2 44729  52.9998 140.6584 0001752  67.2575 292.8599 15.08004288108868
STARLINK-1026           
1 44731U 19074U   21305.01461963  .00001791  00000-0  13912-3 0  9998
2 44731  53.0527 122.9523 0001733  81.9983 278.1202 15.06399349109314
STARLINK-1027           
1 44732U 19074V   21304.67000900  .00001577  00000-0  12481-3 0  9992
2 44732  53.0528 144.5018 0001866  84.8640 275.2562 15.06392074108813
